     3.03           N: GNSS NAV DATA    G: GPS              RINEX VERSION / TYPE
GR10 V4.12          DGFI-TUM            20240130 235942 UTC PGM / RUN BY / DATE
GPSA   1.7695D-08 -7.4506D-09 -5.9605D-08  1.1921D-07       IONOSPHERIC CORR
GPSB   1.3107D+05 -1.3107D+05  6.5536D+04 -2.6214D+05       IONOSPHERIC CORR
GPUT -9.3132257462D-10-3.552713679D-15 405504 2299          TIME SYSTEM CORR
    18    18  1929     7                                    LEAP SECONDS
                                                            END OF HEADER
G01 2023 07 10 11 59 44 1.736083067954D-04-1.932676241267D-12 0.000000000000D+00
     7.800000000000D+01-2.987500000000D+01 3.880875939775D-09 3.360974748260D-01
    -1.372769474983D-06 1.293443224858D-02 9.551644325256D-06 5.153644798279D+03
     1.295840000000D+05-8.754432201385D-08 1.518878383816D+00 1.415610313416D-07
     9.899197957787D-01 2.096562500000D+02 9.840549352551D-01-7.983903990219D-09
    -2.025084352892D-10 1.000000000000D+00 2.270000000000D+03 0.000000000000D+00
     2.000000000000D+00 6.000000000000D+01 4.656612873077D-09 7.800000000000D+01
     1.263900000000D+05                   
G02 2024 01 30 21 59 44-4.929509013891D-04 5.798028723802D-12 0.000000000000D+00
     2.900000000000D+01 2.631250000000D+01 4.188745906652D-09 2.775031608211D+00
     1.518055796623D-06 1.628660887945D-02 9.525567293167D-06 5.153899356842D+03
     2.519840000000D+05 3.054738044739D-07-2.215889383384D+00 5.774199962616D-08
     9.676093734314D-01 1.928125000000D+02-1.249874886169D+00-7.688891701773D-09
    -7.036007363663D-11 1.000000000000D+00 2.299000000000D+03 0.000000000000D+00
     2.000000000000D+00 0.000000000000D+00-1.769512891769D-08 2.900000000000D+01
     2.448000000000D+05                   
G03 2024 01 30 23 59 44 1.616743393242D-04 2.501110429876D-11 0.000000000000D+00
     1.200000000000D+01 1.525000000000D+01 4.300536277455D-09 2.684872631150D-01
     7.487833499908D-07 5.060724797659D-03 4.930421710014D-06 5.153785091400D+03
     2.591840000000D+05-2.980232238770D-08-1.082836051577D+00 3.725290298462D-08
     9.824774633756D-01 2.948125000000D+02 1.072518564349D+00-8.179983586293D-09
     1.428630936784D-10 1.000000000000D+00 2.299000000000D+03 0.000000000000D+00
     2.000000000000D+00 0.000000000000D+00 1.862645149231D-09 1.200000000000D+01
     2.520000000000D+05                   
G04 2024 01 31 00 00 00 2.795695327222D-04 9.549694368616D-12 0.000000000000D+00
     2.040000000000D+02-7.100000000000D+01 4.481258090958D-09-3.061411730190D+00
    -3.693625330925D-06 2.815904794261D-03 7.588416337967D-06 5.153589164734D+03
     2.592000000000D+05 5.587935447693D-09-3.327666107793D-03-1.117587089539D-08
     9.645952633331D-01 2.358437500000D+02-2.993858526933D+00-8.052478275185D-09
    -2.446530479243D-10 1.000000000000D+00 2.299000000000D+03 0.000000000000D+00
     2.000000000000D+00 0.000000000000D+00-4.656612873077D-09 2.040000000000D+02
     2.520000000000D+05                   
G05 2024 01 31 00 00 00-1.599658280611D-04-1.477928890381D-12 0.000000000000D+00
     1.000000000000D+01 2.234375000000D+01 4.501258924073D-09-2.486516208078D+00
     1.151114702225D-06 5.661281174980D-03 4.660338163376D-06 5.153550376892D+03
     2.592000000000D+05 6.519258022308D-08-1.132649638101D+00 2.793967723846D-08
     9.694502700436D-01 2.941875000000D+02 1.233756311405D+00-8.124266979758D-09
     1.746501320219D-10 1.000000000000D+00 2.299000000000D+03 0.000000000000D+00
     2.000000000000D+00 0.000000000000D+00-1.117587089539D-08 1.000000000000D+01
     2.589000000000D+05                   
G06 2024 01 31 00 00 00 4.255794920027D-04-1.409716787748D-11 0.000000000000D+00
     4.100000000000D+01 2.365625000000D+01 3.757656521477D-09 1.538494582120D+00
     1.305714249611D-06 3.141424153000D-03 9.238719940186D-06 5.153556306839D+03
     2.592000000000D+05 4.842877388000D-08-2.120239071211D+00-1.303851604462D-08
     9.896872795791D-01 2.130937500000D+02-7.890355424289D-01-7.652818770619D-09
     2.714398779890D-11 1.000000000000D+00 2.299000000000D+03 0.000000000000D+00
     2.000000000000D+00 0.000000000000D+00 3.725290298462D-09 4.100000000000D+01
     2.520000000000D+05                   
G07 2024 01 31 00 00 00-5.028024315834D-05-9.208633855451D-12 0.000000000000D+00
     2.900000000000D+01 1.121875000000D+01 4.678409160235D-09 6.447630091045D-01
     7.785856723785D-07 1.786437933333D-02 1.084990799427D-05 5.153677770615D+03
     2.592000000000D+05-2.924352884293D-07 1.009870899919D+00 1.098960638046D-07
     9.502303279702D-01 1.691875000000D+02-2.154102938828D+00-8.288916695223D-09
     2.142946405177D-11 1.000000000000D+00 2.299000000000D+03 0.000000000000D+00
     2.000000000000D+00 0.000000000000D+00-1.117587089539D-08 2.900000000000D+01
     2.520000000000D+05                   
G08 2024 01 31 00 00 00-1.646946184337D-04-1.818989403546D-12 0.000000000000D+00
     1.110000000000D+02-3.096875000000D+01 4.803771524937D-09-2.808107445747D+00
    -1.642853021622D-06 9.284850093536D-03 7.320195436478D-06 5.153581354141D+03
     2.592000000000D+05-1.322478055954D-07 3.071861273569D+00-9.499490261078D-08
     9.552294423519D-01 2.379375000000D+02 3.099993893360D-01-8.135696027253D-09
    -3.321566928024D-10 1.000000000000D+00 2.299000000000D+03 0.000000000000D+00
     2.800000000000D+00 0.000000000000D+00 5.122274160385D-09 1.110000000000D+02
     2.583300000000D+05                   
G09 2024 01 31 00 00 00 7.609929889441D-05 1.250555214938D-11 0.000000000000D+00
     6.900000000000D+01-6.946875000000D+01 4.660908431259D-09-2.348523117483D+00
    -3.658235073090D-06 2.827699063346D-03 7.048249244690D-06 5.153733510971D+03
     2.592000000000D+05 6.146728992462D-08-6.191905515433D-02 3.166496753693D-08
     9.580726543602D-01 2.430312500000D+02 2.011522226375D+00-8.143196339671D-09
    -2.703684047864D-10 1.000000000000D+00 2.299000000000D+03 0.000000000000D+00
     2.000000000000D+00 0.000000000000D+00 1.396983861923D-09 6.900000000000D+01
     2.520000000000D+05                   
G10 2024 01 30 18 00 00-7.137097418308D-05-1.477928890381D-12 0.000000000000D+00
     4.600000000000D+01 1.531250000000D+01 4.174102439550D-09 2.338914465267D+00
     7.282942533493D-07 9.304960723966D-03 4.690140485764D-06 5.153685518265D+03
     2.376000000000D+05-1.247972249985D-07-1.085242260696D+00-1.788139343262D-07
     9.821613692033D-01 3.003750000000D+02-2.382747345711D+00-7.964974630307D-09
     2.317953694933D-10 1.000000000000D+00 2.299000000000D+03 0.000000000000D+00
     2.000000000000D+00 0.000000000000D+00 2.328306436539D-09 4.600000000000D+01
     2.304000000000D+05                   
G11 2024 01 31 00 00 00-5.590217188001D-04-1.341504685115D-11 0.000000000000D+00
     1.280000000000D+02 3.265625000000D+01 4.214818421248D-09 2.684008668306D+00
     1.661479473114D-06 1.253236318007D-03 9.007751941681D-06 5.153660924911D+03
     2.592000000000D+05-1.862645149231D-08-2.084547006573D+00-2.421438694000D-08
     9.660943242664D-01 2.083437500000D+02-2.467009869069D+00-7.910329496975D-09
     7.536028191537D-11 1.000000000000D+00 2.299000000000D+03 0.000000000000D+00
     2.000000000000D+00 0.000000000000D+00-8.381903171539D-09 6.400000000000D+02
     2.520000000000D+05                   
G12 2024 01 30 12 00 00-4.730261862278D-04-3.751665644813D-12 0.000000000000D+00
     7.100000000000D+01 2.925000000000D+01 4.836272878749D-09-7.330370893657D-02
     1.467764377594D-06 8.951623924077D-03 5.049630999565D-06 5.153710832596D+03
     2.160000000000D+05-1.247972249985D-07 2.125994250914D+00 9.499490261078D-08
     9.629796063659D-01 2.842500000000D+02 1.408110947690D+00-8.402850012431D-09
     1.785788670980D-12 1.000000000000D+00 2.299000000000D+03 0.000000000000D+00
     2.000000000000D+00 0.000000000000D+00-1.257285475731D-08 7.100000000000D+01
     2.088000000000D+05                   
G13 2024 01 30 08 00 00 6.207777187228D-04 3.637978807092D-12 0.000000000000D+00
     3.600000000000D+01-7.753125000000D+01 4.363396038674D-09 1.059270596198D+00
    -3.943219780922D-06 7.781575201079D-03 8.920207619667D-06 5.153662654877D+03
     2.016000000000D+05-7.078051567078D-08 1.025896655456D-01 1.322478055954D-07
     9.713100251327D-01 2.139062500000D+02 9.425744826735D-01-8.078907947515D-09
    -3.271564845236D-10 1.000000000000D+00 2.299000000000D+03 0.000000000000D+00
     2.000000000000D+00 0.000000000000D+00-1.117587089539D-08 3.600000000000D+01
     1.944000000000D+05                   
G14 2024 01 31 00 00 00 3.128927201033D-04 1.011812855722D-11 0.000000000000D+00
     4.400000000000D+01 3.684375000000D+01 5.158071997260D-09-4.948581387707D-02
     1.931563019753D-06 3.900476847775D-03 5.479902029037D-06 5.153682764053D+03
     2.592000000000D+05 1.490116119385D-08 2.083032383117D+00 3.539025783539D-08
     9.462971761614D-01 2.655000000000D+02-2.964966607309D+00-8.473210086068D-09
     1.460775132862D-10 1.000000000000D+00 2.299000000000D+03 0.000000000000D+00
     2.000000000000D+00 0.000000000000D+00-7.916241884232D-09 8.120000000000D+02
     2.521800000000D+05                   
G15 2024 01 30 14 00 00 1.225452870131D-04 3.865352482535D-12 0.000000000000D+00
     1.900000000000D+01-8.084375000000D+01 5.174501253033D-09-2.743680824656D+00
    -4.358589649200D-06 1.544388127513D-02 5.882233381271D-06 5.153603258133D+03
     2.232000000000D+05 2.644956111908D-07-1.864220061391D-01-4.656612873077D-08
     9.347249616523D-01 2.472500000000D+02 1.287850682962D+00-8.251415133132D-09
    -9.678974596714D-11 1.000000000000D+00 2.299000000000D+03 0.000000000000D+00
     2.000000000000D+00 0.000000000000D+00-1.024454832077D-08 1.900000000000D+01
     2.160000000000D+05                   
